{
  "type": "FeatureCollection",
  "features": [
    {
      "type": "Feature",
      "id": 6249641,
      "geometry": {
        "type": "MultiPolygon",
        "coordinates": [
          [
            [
              [-118.12574699986469, 34.207308000275894],
              [-118.13075999979868, 34.207403999660315],
              [-118.13074700027822, 34.203976999825805],
              [-118.13076700036972, 34.204003000635481],
              [-118.13079699960862, 34.204018999929581],
              [-118.13084699983733, 34.204035999965633],
              [-118.13088000034759, 34.204039999973631],
              [-118.13096099964015, 34.204039999973631],
              [-118.13122399940586, 34.204031999957493],
              [-118.13158800035225, 34.204008999906776],
              [-118.13234700041055, 34.203950999751079],
              [-118.13251399991681, 34.203935999704363],
              [-118.13328100037103, 34.203868998719926],
              [-118.13338299957996, 34.203861000173418],
              [-118.13440299975412, 34.203778999797684],
              [-118.13486500060984, 34.20374400035594],
              [-118.13479699993943, 34.203280000249023],
              [-118.13436699976911, 34.203281000259992],
              [-118.13622600036753, 34.200836999670628],
              [-118.13984900023151, 34.202738999254819],
              [-118.14149800076763, 34.202855999724228],
              [-118.14192700021472, 34.202259999957725],
              [-118.14319000006314, 34.200209999768774],
              [-118.1427990002509, 34.200021000255937],
              [-118.14189200005461, 34.199582999661772],
              [-118.14098700040647, 34.199146001310062],
              [-118.14036100041757, 34.198843999729789],
              [-118.14004500005008, 34.198686999998834],
              [-118.13930699990819, 34.198319999690803],
              [-118.13778600031689, 34.197565000060607],
              [-118.13804200040992, 34.197202999742252],
              [-118.13815600021273, 34.197042999672803],
              [-118.13818200015201, 34.197005998749802],
              [-118.13874000036886, 34.196204999346335],
              [-118.1397379999034, 34.194771999765742],
              [-118.13989000023938, 34.194555999837149],
              [-118.1406370006021, 34.193513999694943],
              [-118.14103300043723, 34.192933999930737],
              [-118.13552800040864, 34.191159000273785],
              [-118.13387400074794, 34.190596999852445],
              [-118.13309400077326, 34.190397000026003],
              [-118.13235200043341, 34.190352000073979],
              [-118.13183299967632, 34.19047499864751],
              [-118.13176300025445, 34.193049999756909],
              [-118.13369200027475, 34.193673999773381],
              [-118.13325999955629, 34.194299999865727],
              [-118.13266699917938, 34.194111999856212],
              [-118.13132800006126, 34.193674999898299],
              [-118.13121599990828, 34.193652998633361],
              [-118.13117099970243, 34.193643000353113],
              [-118.13114500066148, 34.194312001274966],
              [-118.13237799857605, 34.194715000055027],
              [-118.13204600011166, 34.195306001363043],
              [-118.13249300000042, 34.19544100064693],
              [-118.1324439995966, 34.195539999736731],
              [-118.13242400040345, 34.195591999865087],
              [-118.13240099993889, 34.195671999828384],
              [-118.13238800041842, 34.195738999897181],
              [-118.1323730003498, 34.19586900022253],
              [-118.13160900026865, 34.195648000367498],
              [-118.1314999995904, 34.197437000281624],
              [-118.13073999970722, 34.197361000088755],
              [-118.12977499978459, 34.197624000229929],
              [-118.12893999955833, 34.197717000010073],
              [-118.12843900014123, 34.197747998675652],
              [-118.12818000057348, 34.197917999639841],
              [-118.12777299996937, 34.198642999335583],
              [-118.12732799973044, 34.198704999689419],
              [-118.12716100022416, 34.198798001249166],
              [-118.12678899978019, 34.198674999955337],
              [-118.1266850000231, 34.19863799974847],
              [-118.12655199995372, 34.198570999754274],
              [-118.12628800036308, 34.198448999683592],
              [-118.12616000031656, 34.198383999677347],
              [-118.1261419998749, 34.198372000333677],
              [-118.12604099959256, 34.198311999874861],
              [-118.12601600037652, 34.198293999357368],
              [-118.12594699988124, 34.198238999940081],
              [-118.12589700144915, 34.198192999643418],
              [-118.12585200034499, 34.198147000064623],
              [-118.12581200016201, 34.198102999862563],
              [-118.12575400043569, 34.198028999673561],
              [-118.1257410000169, 34.198038999662728],
              [-118.12565199943013, 34.198107000152078],
              [-118.12563200023695, 34.198121999750001],
              [-118.12581900073302, 34.19902399984241],
              [-118.12760800011293, 34.200871000279747],
              [-118.12591099989621, 34.20087300035884],
              [-118.12435199977178, 34.20008799984079],
              [-118.12225200004725, 34.201006000312155],
              [-118.12225700007009, 34.204174000131445],
              [-118.12592500013994, 34.204171000130273],
              [-118.12574699986469, 34.207308000275894]
            ]
          ],
          [
            [
              [-118.12252799933346, 34.175891000038334],
              [-118.12158800042351, 34.175903000350928],
              [-118.12159399937299, 34.176509999755147],
              [-118.12167399973895, 34.176740000665987],
              [-118.12170400077447, 34.176818000024745],
              [-118.12176200139909, 34.176935000042391],
              [-118.12179799958749, 34.176998999907234],
              [-118.12183800066877, 34.177074999869454],
              [-118.12186999955752, 34.177152999661686],
              [-118.1218760003036, 34.177176999926274],
              [-118.12188299997631, 34.177204999978599],
              [-118.12188999964899, 34.177245000143358],
              [-118.12188999964899, 34.177311999986742],
              [-118.12188299997631, 34.177380000095091],
              [-118.12185900058518, 34.177488999771867],
              [-118.12182900044796, 34.177584999663814],
              [-118.12178000004414, 34.177717000358683],
              [-118.12175499992979, 34.17776800001451],
              [-118.12172699944237, 34.177818000069713],
              [-118.12161600001261, 34.177989000643969],
              [-118.12156999998186, 34.178076999717987],
              [-118.12155499991323, 34.178115999903184],
              [-118.12154700041565, 34.178142001255203],
              [-118.12153199944871, 34.178208999643196],
              [-118.12151800010334, 34.17848000026688],
              [-118.123179000335, 34.178477000094759],
              [-118.12500299987501, 34.178472000055272],
              [-118.12523600040181, 34.178472000055272],
              [-118.12523100037897, 34.177791001277249],
              [-118.12642500063042, 34.17778000006016],
              [-118.12640699929045, 34.177171999809758],
              [-118.12728000004985, 34.177166000115527],
              [-118.12727400020206, 34.176500999771356],
              [-118.12727000000412, 34.175889000109912],
              [-118.12726499998125, 34.175284998754059],
              [-118.12637299985356, 34.175294999953593],
              [-118.12633500021873, 34.175294999953593],
              [-118.12634799973921, 34.175142999727143],
              [-118.12253800027752, 34.175178000634752],
              [-118.12252799933346, 34.175891000038334]
            ]
          ],
          [
            [
              [-118.12156099976102, 34.186519999641781],
              [-118.12051899984552, 34.186530999719231],
              [-118.12051999967045, 34.186727999917196],
              [-118.12051699929739, 34.186887000031888],
              [-118.1205150014442, 34.186943000370114],
              [-118.12051699929739, 34.186968999744835],
              [-118.12052200021857, 34.187070999729713],
              [-118.12051999967045, 34.18714000034889],
              [-118.12050899979978, 34.187206999765344],
              [-118.12048899970829, 34.187255999970297],
              [-118.12047600018784, 34.187280999790985],
              [-118.12045100007346, 34.187317000322238],
              [-118.12038999997412, 34.187380000286041],
              [-118.12035499981398, 34.187418999886233],
              [-118.12031700017917, 34.187447999710606],
              [-118.12026899960027, 34.187480000120232],
              [-118.12058400014287, 34.187780999849373],
              [-118.12058599979268, 34.189549999709186],
              [-118.12071700021225, 34.190027000285582],
              [-118.12102899858513, 34.190482999950042],
              [-118.12110000142519, 34.190471000225102],
              [-118.12124600011676, 34.190451000679751],
              [-118.1212839997516, 34.190447000027028],
              [-118.12139300042985, 34.190435000297029],
              [-118.12164100012697, 34.19041700032718],
              [-118.12180599998341, 34.190408000340838],
              [-118.12217000003149, 34.190394000277621],
              [-118.12283100018048, 34.190377999884042],
              [-118.12327399987127, 34.190371999642807],
              [-118.12326500144707, 34.189379999708507],
              [-118.1232549996047, 34.188596000123212],
              [-118.12324700010709, 34.187753000334631],
              [-118.12323799988624, 34.186957000263057],
              [-118.12323200003846, 34.186503999999502],
              [-118.12156099976102, 34.186519999641781]
            ]
          ],
          [
            [
              [-118.12524600044758, 34.179246000108868],
              [-118.12524700027247, 34.179723000243769],
              [-118.12500299987501, 34.179725999628467],
              [-118.1231929996804, 34.179743999650228],
              [-118.12320399955107, 34.180934999368873],
              [-118.12320800064732, 34.1812969996612],
              [-118.12320800064732, 34.181373999738604],
              [-118.12732600008063, 34.181334000044956],
              [-118.1273339995782, 34.180809999705758],
              [-118.12731400038507, 34.179702999636383],
              [-118.12730599998912, 34.179244000260013],
              [-118.12524600044758, 34.179246000108868]
            ]
          ]
        ]
      },
      "properties": {
        "SABL_PWSID": "CA1910061",
        "BOUNDARY_TYPE": "Water Service Area",
        "WATER_SYSTEM_NAME": "LAS FLORES WATER CO.",
        "POPULATION": 4847,
        "SERVICE_CONNECTIONS": 1479,
        "ADDRESS": "428 E. Sacramento Street",
        "CITY": "Altadena",
        "STATE": "CA",
        "ZIP": "91001",
        "COUNTY": "LOS ANGELES",
        "OWNER_TYPE": "Private",
        "CLASSIFICATION": "Community"
      }
    }
  ]
}
